IRIDIUM 64 [+]          
1 25287U 98021C   17114.85349425  .00000167  00000-0  52735-4 0  9998
2 25287  86.3968 246.2163 0002296  92.7689 267.3770 14.34215555997079
IRIDIUM 65 [+]          
1 25288U 98021D   17114.85984162  .00000162  00000-0  50955-4 0  9999
2 25288  86.3967 246.1182 0002270 100.2200 259.9252 14.34215435997096
IRIDIUM 66 [+]          
1 25289U 98021E   17114.86617790  .00000166  00000-0  52246-4 0  9990
2 25289  86.3966 246.0193 0002174  99.2020 260.9422 14.34215636997372
IRIDIUM 67 [+]          
1 25290U 98021F   17114.87252480  .00000167  00000-0  52750-4 0  9995
2 25290  86.3967 246.1522 0002196  97.3872 262.7573 14.34215473997107
IRIDIUM 68 [+]          
1 25291U 98021G   17114.87883906  .00000164  00000-0  51344-4 0  9994
2 25291  86.3969 246.2673 0002246  96.1646 263.9805 14.34215748997072
IRIDIUM 69 [-]          
1 25319U 98026A   17114.90370724  .00000152  00000-0  43136-4 0  9990
2 25319  86.3970 268.1148 0004039  91.6971 268.4690 14.38663308995127
IRIDIUM 71 [-]          
1 25320U 98026B   17114.83980773  .00000177  00000-0  50986-4 0  9993
2 25320  86.3956 264.0550 0003515 125.8173 234.3352 14.39077708995533
IRIDIUM 70 [+]          
1 25342U 98032A   17114.92657090  .00000158  00000-0  49454-4 0  9994
2 25342  86.3972 246.4868 0002175  99.9067  15.5402 14.34215847991180
IRIDIUM 72 [+]          
1 25343U 98032B   17114.89152693  .00000164  00000-0  51420-4 0  9993
2 25343  86.3967 246.1167 0002200  97.5568 262.5877 14.34216038991186
IRIDIUM 73 [-]          
1 25344U 98032C   17114.90110397  .00000208  00000-0  49483-4 0  9996
2 25344  86.4465 225.4328 0001759 107.2182 252.9215 14.49027976999554
IRIDIUM 74 [S]          
1 25345U 98032D   17114.89401819  .00000198  00000-0  53868-4 0  9997
2 25345  86.4482 246.5384 0006110 188.8400 284.4154 14.42443790994774
IRIDIUM 75 [+]          
1 25346U 98032E   17114.89786294  .00000159  00000-0  49583-4 0  9997
2 25346  86.3970 246.3646 0002178  97.0170 263.1273 14.34216151991762
IRIDIUM 3 [+]           
1 25431U 98048A   17114.61243182 -.00000008  00000-0 -99447-5 0  9993
2 25431  86.3925 278.0915 0002063  94.4946 313.8636 14.34214566977660
IRIDIUM 76 [+]          
1 25432U 98048B   17114.85377340 -.00000009  00000-0 -10166-4 0  9995
2 25432  86.3923 277.7462 0001917  90.9861  24.4482 14.34214100977956
IRIDIUM 82 [+]          
1 25467U 98051A   17114.87060327  .00000264  00000-0  87014-4 0  9990
2 25467  86.3998  44.4232 0002823  84.8934 275.2583 14.34225463978975
IRIDIUM 81 [+]          
1 25468U 98051B   17114.86425942  .00000238  00000-0  78003-4 0  9997
2 25468  86.3995  44.0692 0002206  80.2281 279.9164 14.34218401975167
IRIDIUM 80 [+]          
1 25469U 98051C   17114.86954568  .00000223  00000-0  77857-4 0  9999
2 25469  86.3997  44.3646 0002918  81.3005 339.3607 14.30653485975162
IRIDIUM 77 [+]          
1 25471U 98051E   17114.92962324  .00000230  00000-0  75095-4 0  9998
2 25471  86.3991  43.8992 0002148  85.1110 318.4846 14.34224515980140
IRIDIUM 2 [-]           
1 25527U 98066A   17114.93725929  .00003766  00000-0  19203-3 0  9990
2 25527  85.5310  63.6775 0006851 293.3016  66.7502 15.16407774 10293
IRIDIUM 86 [+]          
1 25528U 98066B   17114.81000183  .00000241  00000-0  79101-4 0  9995
2 25528  86.3994  12.1216 0002158  89.0563 271.0881 14.34226466971476
IRIDIUM 84 [+]          
1 25530U 98066D   17114.84170917  .00000244  00000-0  80014-4 0  9992
2 25530  86.3996  12.2724 0002104  83.5585 276.5850 14.34226216969285
IRIDIUM 83 [+]          
1 25531U 98066E   17114.80365925  .00000254  00000-0  83577-4 0  9992
2 25531  86.3999  12.4114 0002159  82.5387 277.6054 14.34226587966414
IRIDIUM 20 [+]          
1 25577U 98074A   17114.58407173  .00000000  00000-0 -69898-5 0  9999
2 25577  86.3922 277.7811 0002079  91.2478 268.8956 14.34212994146149
IRIDIUM 11 [+]          
1 25578U 98074B   17114.82990545  .00000004  00000-0 -55129-5 0  9993
2 25578  86.3922 277.8802 0002270  94.2497  28.7974 14.34213979969744
IRIDIUM 14 [+]          
1 25777U 99032A   17114.91692787  .00000160  00000-0  49911-4 0  9999
2 25777  86.3969 246.1878 0002225 100.9161 259.2286 14.34215328946967
IRIDIUM 21 [+]          
1 25778U 99032B   17114.88518110  .00000151  00000-0  46743-4 0  9993
2 25778  86.3968 246.2207 0002071  94.5014 265.6419 14.34216105940392
IRIDIUM 91 [+]          
1 27372U 02005A   17114.87866449 -.00000008  00000-0 -99925-5 0  9993
2 27372  86.3926 309.4623 0001626  95.5491  32.7272 14.34218096803936
IRIDIUM 90 [S]          
1 27373U 02005B   17114.86348048  .00000275  00000-0  76401-4 0  9990
2 27373  86.4508  12.3692 0002112  86.8681 273.2761 14.42961610803598
IRIDIUM 94 [+]          
1 27374U 02005C   17114.84757589 -.00000004  00000-0 -85585-5 0  9999
2 27374  86.3923 278.0016 0001488 105.2742  10.8828 14.34213123808278
IRIDIUM 95 [+]          
1 27375U 02005D   17114.68258494 -.00000000  00000-0 -71647-5 0  9993
2 27375  86.3694 309.6474 0001941  87.5810 272.5608 14.34217422803213
IRIDIUM 96 [+]          
1 27376U 02005E   17114.73047781  .00000169  00000-0  53114-4 0  9997
2 27376  86.3995 341.5596 0001552  51.7980 308.3355 14.34222371209112
IRIDIUM 97 [+]          
1 27450U 02031A   17114.90807622  .00000154  00000-0  47816-4 0  9992
2 27450  86.3963 341.1813 0002296  83.0085 277.1372 14.34221475782547
IRIDIUM 98 [+]          
1 27451U 02031B   17114.89018715  .00000229  00000-0  72376-4 0  9990
2 27451  86.3989  44.4712 0002344  82.0927 343.6115 14.35764933783643
